     3.02           N: GNSS NAV DATA    G: GPS              RINEX VERSION / TYPE
Spider v7.5.1.8670  SMO                 20250117 080400 UTC PGM / RUN BY / DATE
GPSA   2.7940D-08  2.2352D-08 -1.1921D-07  5.9605D-08       IONOSPHERIC CORR
GPSB   1.5155D+05 -1.6384D+05  0.0000D+00  1.3107D+05       IONOSPHERIC CORR
GPUT  1.8626451492D-09 3.552713679D-15  61440 2350          TIME SYSTEM CORR
    18    18  2185     7                                    LEAP SECONDS
                                                            END OF HEADER
G01 2025 01 05 10 00 00 2.214498817921D-05 3.410605131648D-11 0.000000000000D+00
     9.600000000000D+01 4.781250000000D+01 4.319465674030D-09 2.144356729888D+00
     2.373009920120D-06 2.204225165769D-04 1.019425690174D-05 5.153757188797D+03
     3.600000000000D+04 2.048909664154D-08-1.906437723743D+00-1.862645149231D-09
     9.597248491694D-01 1.837500000000D+02-1.228194280776D+00-8.046764143899D-09
     1.003613234185D-10 1.000000000000D+00 2.348000000000D+03 0.000000000000D+00
     2.800000000000D+00 1.000000000000D+00-1.396983861923D-09 9.600000000000D+01
     2.874000000000D+04 1.000000000000D+00
G02 2025 01 17 08 00 00-2.658460289240D-04 9.208633855451D-12 0.000000000000D+00
     8.800000000000D+01 6.443750000000D+01 4.217675542151D-09 1.500495456173D+00
     3.239139914513D-06 1.655854133423D-02 9.130686521530D-06 5.153678663254D+03
     4.608000000000D+05 3.874301910400D-07-2.200021039296D+00-1.471489667892D-07
     9.664964190038D-01 2.025625000000D+02-1.049960821071D+00-7.787110511970D-09
     9.071806500449D-11 1.000000000000D+00 2.349000000000D+03 0.000000000000D+00
     2.000000000000D+00 0.000000000000D+00-1.769512891769D-08 8.800000000000D+01
     4.535400000000D+05                   
G03 2025 01 17 06 00 00 6.475499831140D-04 7.275957614183D-12 0.000000000000D+00
     1.900000000000D+01 1.181250000000D+01 4.279463894363D-09-2.952248240372D+00
     6.761401891708D-07 5.685760406777D-03 2.175569534302D-06 5.153590488434D+03
     4.536000000000D+05 1.303851604462D-07-1.060263995108D+00-1.043081283569D-07
     9.876618651096D-01 3.503437500000D+02 1.138765118435D+00-8.111409321998D-09
     8.964658876343D-11 1.000000000000D+00 2.349000000000D+03 0.000000000000D+00
     2.000000000000D+00 0.000000000000D+00 1.396983861923D-09 1.900000000000D+01
     4.463400000000D+05                   
G04 2025 01 17 08 29 36 5.132388323545D-04 5.798028723802D-12 0.000000000000D+00
     2.240000000000D+02-1.023750000000D+02 4.440899203928D-09 1.311323804803D+00
    -5.137175321579D-06 3.228158457205D-03 7.523223757744D-06 5.153677375793D+03
     4.625760000000D+05 4.842877388000D-08 1.582748186101D-02-5.587935447693D-09
     9.671596665622D-01 2.378125000000D+02-2.952308884178D+00-8.094622749866D-09
    -2.646538821427D-10 1.000000000000D+00 2.349000000000D+03 0.000000000000D+00
     2.000000000000D+00 0.000000000000D+00-4.656612873077D-09 9.920000000000D+02
     4.553100000000D+05                   
G05 2025 01 16 22 00 00-1.992266625166D-04-1.136868377216D-12 0.000000000000D+00
     9.300000000000D+01 1.228125000000D+01 4.466257585989D-09 2.753664397907D+00
     6.482005119324D-07 5.583371268585D-03 1.499429345131D-06 5.153731054306D+03
     4.248000000000D+05 9.872019290924D-08-1.114434845096D+00-5.587935447693D-09
     9.744935777176D-01 3.580625000000D+02 1.324691192420D+00-8.216056279764D-09
    -7.500312003417D-12 1.000000000000D+00 2.349000000000D+03 0.000000000000D+00
     2.000000000000D+00 0.000000000000D+00-1.071020960808D-08 9.300000000000D+01
     4.175400000000D+05                   
G06 2025 01 16 17 59 44-1.229317858815D-04-2.660272002686D-11 0.000000000000D+00
     2.000000000000D+00 1.195312500000D+02 3.683724880688D-09-1.649128450899D+00
     6.159767508507D-06 3.471513744444D-03 9.004026651382D-06 5.153772418976D+03
     4.103840000000D+05-2.048909664154D-08-2.096052713900D+00 3.725290298462D-08
     9.892371367603D-01 2.239375000000D+02-7.154951977155D-01-7.732107398795D-09
     1.828647649971D-10 1.000000000000D+00 2.349000000000D+03 0.000000000000D+00
     2.000000000000D+00 0.000000000000D+00 3.725290298462D-09 2.000000000000D+00
     4.031100000000D+05                   
G07 2025 01 17 08 00 00-1.345993950963D-05 2.273736754432D-13 0.000000000000D+00
     1.320000000000D+02 6.875000000000D+00 4.600191783055D-09-1.386567465998D+00
     3.892928361893D-07 1.896467059851D-02 1.013278961182D-05 5.153758268356D+03
     4.608000000000D+05 4.284083843231D-07 1.026917857125D+00 2.700835466385D-07
     9.503167030423D-01 1.761875000000D+02-2.082804669678D+00-7.923544487198D-09
     2.292952633320D-10 1.000000000000D+00 2.349000000000D+03 0.000000000000D+00
     2.000000000000D+00 0.000000000000D+00-1.071020960808D-08 1.320000000000D+02
     4.535400000000D+05                   
G08 2025 01 17 08 00 00 4.625525325537D-04 7.730704965070D-12 0.000000000000D+00
     1.000000000000D+00-1.653125000000D+01 4.747697790464D-09 1.369546895445D+00
    -7.338821887970D-07 1.036230707541D-02 8.571892976761D-06 5.153737035751D+03
     4.608000000000D+05-8.568167686462D-08 3.082955921397D+00 7.264316082001D-08
     9.498556410029D-01 2.100312500000D+02 4.070975003307D-01-8.186769484553D-09
    -5.739524966408D-10 1.000000000000D+00 2.349000000000D+03 0.000000000000D+00
     2.000000000000D+00 0.000000000000D+00 4.656612873077D-09 2.570000000000D+02
     4.535400000000D+05                   
G09 2025 01 17 08 00 00 5.319444462657D-04 1.489297574153D-11 0.000000000000D+00
     6.000000000000D+00-9.987500000000D+01 4.498044603451D-09 1.947260742403D+00
    -5.209818482399D-06 3.148370422423D-03 7.005408406258D-06 5.153786624908D+03
     4.608000000000D+05 1.490116119385D-08-4.544016951974D-02-1.005828380585D-07
     9.609478355174D-01 2.398750000000D+02 2.029720247024D+00-8.104265702968D-09
    -2.907263874086D-10 1.000000000000D+00 2.349000000000D+03 0.000000000000D+00
     2.000000000000D+00 0.000000000000D+00 9.313225746155D-10 6.000000000000D+00
     4.535400000000D+05                   
G10 2025 01 17 04 00 00-2.800854854286D-04-1.591615728103D-11 0.000000000000D+00
     5.200000000000D+01 1.193750000000D+01 4.337680881150D-09 1.234061879882D+00
     7.059425115585D-07 1.012326322962D-02 2.715736627579D-06 5.153651252747D+03
     4.464000000000D+05-1.117587089539D-07-1.062730249701D+00 1.732259988785D-07
     9.872790106708D-01 3.448750000000D+02-2.323867429721D+00-8.341419110991D-09
    -2.392956839625D-11 1.000000000000D+00 2.349000000000D+03 0.000000000000D+00
     2.000000000000D+00 0.000000000000D+00 2.328306436539D-09 5.200000000000D+01
     4.391400000000D+05                   
G11 2025 01 16 20 00 00-7.515004836023D-04 1.136868377216D-12 0.000000000000D+00
     1.320000000000D+02 1.080000000000D+02 4.294821831508D-09 4.668571713665D-01
     5.619600415230D-06 1.744292210788D-03 8.134171366692D-06 5.153600589752D+03
     4.176000000000D+05-1.303851604462D-08-2.068257835081D+00 6.332993507385D-08
     9.659067840203D-01 2.272500000000D+02-2.332336057673D+00-8.012476904184D-09
     1.003613234185D-10 1.000000000000D+00 2.349000000000D+03 0.000000000000D+00
     2.000000000000D+00 0.000000000000D+00-8.847564458847D-09 3.880000000000D+02
     4.103400000000D+05                   
G12 2025 01 17 02 00 00-5.648927763104D-04-2.160049916711D-12 0.000000000000D+00
     5.200000000000D+01 9.250000000000D+00 4.909133100028D-09 1.013464079807D+00
     3.445893526077D-07 9.009742294438D-03 5.198642611504D-06 5.153751396179D+03
     4.392000000000D+05-1.527369022369D-07 2.143736252203D+00-3.911554813385D-08
     9.605825229292D-01 2.787500000000D+02 1.468418591266D+00-8.386420446982D-09
     5.535944966328D-11 1.000000000000D+00 2.349000000000D+03 0.000000000000D+00
     2.000000000000D+00 0.000000000000D+00-1.257285475731D-08 5.200000000000D+01
     4.319400000000D+05                   
G13 2025 01 16 22 00 00 6.936914287508D-04 1.136868377216D-12 0.000000000000D+00
     3.700000000000D+01-1.028437500000D+02 3.928378067286D-09 2.139772633662D+00
    -5.401670932770D-06 8.844446972944D-03 9.255483746529D-06 5.153691032410D+03
     4.248000000000D+05-6.146728992462D-08 1.241635393612D-01-1.676380634308D-07
     9.733868992086D-01 2.081562500000D+02 9.664938779151D-01-7.750680097729D-09
    -9.000374751045D-11 1.000000000000D+00 2.349000000000D+03 0.000000000000D+00
     2.000000000000D+00 0.000000000000D+00-1.117587089539D-08 3.700000000000D+01
     4.175400000000D+05                   
G14 2025 01 16 14 00 00 5.810768343508D-04 7.162270776462D-12 0.000000000000D+00
     3.700000000000D+01 4.250000000000D+00 5.456298524109D-09 8.698621993321D-01
     3.054738044739D-07 5.194151774049D-03 4.708766937256D-06 5.153695693970D+03
     3.960000000000D+05 2.793967723846D-08 2.095952079766D+00 2.235174179077D-08
     9.438819525405D-01 2.775000000000D+02-2.862463082768D+00-8.559999820079D-09
    -1.564350871064D-10 1.000000000000D+00 2.349000000000D+03 0.000000000000D+00
     2.000000000000D+00 0.000000000000D+00-7.916241884232D-09 5.490000000000D+02
     3.887400000000D+05                   
G15 2025 01 17 00 00 00 2.524885348976D-04 4.433786671143D-12 0.000000000000D+00
     5.500000000000D+01-1.149062500000D+02 4.838415890163D-09 2.451017842571D+00
    -6.005167961121D-06 1.612802350428D-02 5.807727575302D-06 5.153754657745D+03
     4.320000000000D+05 1.769512891769D-07-1.790255727908D-01-1.266598701477D-07
     9.381561994342D-01 2.527500000000D+02 1.388112553260D+00-8.088551162189D-09
    -3.057270270279D-10 1.000000000000D+00 2.349000000000D+03 0.000000000000D+00
     2.000000000000D+00 0.000000000000D+00-1.024454832077D-08 5.500000000000D+01
     4.247400000000D+05                   
